CCSDS_OMM_VERS,COMMENT,CREATION_DATE,ORIGINATOR,OBJECT_NAME,OBJECT_ID,CENTER_NAME,REF_FRAME,TIME_SYSTEM,MEAN_ELEMENT_THEORY,EPOCH,MEAN_MOTION,ECCENTRICITY,INCLINATION,RA_OF_ASC_NODE,ARG_OF_PERICENTER,MEAN_ANOMALY,EPHEMERIS_TYPE,CLASSIFICATION_TYPE,NORAD_CAT_ID,ELEMENT_SET_NO,REV_AT_EPOCH,BSTAR,MEAN_MOTION_DOT,MEAN_MOTION_DDOT,SEMIMAJOR_AXIS,PERIOD,APOAPSIS,PERIAPSIS,OBJECT_TYPE,RCS_SIZE,COUNTRY_CODE,LAUNCH_DATE,SITE,DECAY_DATE,FILE,GP_ID,TLE_LINE0,TLE_LINE1,TLE_LINE2
"3.0","GENERATED VIA SPACE-TRACK.ORG API","2026-03-25T17:29:05","18 SPCS","CZ-6A DEB","2022-151HL","EARTH","TEME","UTC","SGP4","2026-03-25T03:54:26.982720","14.78040470","0.00664375","98.6172","151.6873","156.9231","203.4986","0","U","54484","999","17801","0.00238890670000","0.00017880","0.0000000000000","7013.653","97.426","682.115","588.921","DEBRIS","SMALL","PRC","2022-11-11","TSC","","5096884","317021038","0 CZ-6A DEB","1 54484U 22151HL  26084.16281230  .00017880  00000-0  23889-2 0  9995","2 54484  98.6172 151.6873 0066437 156.9231 203.4986 14.78040470178018"
"3.0","GENERATED VIA SPACE-TRACK.ORG API","2026-03-25T17:29:05","18 SPCS","CZ-6A DEB","2022-151HP","EARTH","TEME","UTC","SGP4","2026-03-25T03:37:34.622688","14.87286877","0.00512397","98.6496","156.7611","160.3182","200.0025","0","U","54487","999","17645","0.00362053870000","0.00033527","0.0000000000000","6984.554","96.821","642.208","570.630","DEBRIS","SMALL","PRC","2022-11-11","TSC","","5096884","317021039","0 CZ-6A DEB","1 54487U 22151HP  26084.15109517  .00033527  00000-0  36205-2 0  9996","2 54487  98.6496 156.7611 0051240 160.3182 200.0025 14.87286877176452"
"3.0","GENERATED VIA SPACE-TRACK.ORG API","2026-03-25T17:29:05","18 SPCS","CZ-6A DEB","2022-151HR","EARTH","TEME","UTC","SGP4","2026-03-25T01:54:06.815520","14.64341019","0.00750736","98.6282","139.2300","206.1339","153.6065","0","U","54489","999","17716","0.00155756780000","0.00008522","0.0000000000000","7057.329","98.338","732.176","626.212","DEBRIS","SMALL","PRC","2022-11-11","TSC","","5096884","317021540","0 CZ-6A DEB","1 54489U 22151HR  26084.07924555  .00008522  00000-0  15576-2 0  9991","2 54489  98.6282 139.2300 0075074 206.1339 153.6065 14.64341019177163"
"3.0","GENERATED VIA SPACE-TRACK.ORG API","2026-03-25T17:29:05","18 SPCS","CZ-6A DEB","2022-151JQ","EARTH","TEME","UTC","SGP4","2026-03-25T02:46:22.340640","14.65381035","0.00936748","98.5946","139.7395","190.2279","169.7019","0","U","54512","999","17590","0.00131691660000","0.00007542","0.0000000000000","7053.989","98.268","741.932","609.776","DEBRIS","SMALL","PRC","2022-11-11","TSC","","5096884","317021549","0 CZ-6A DEB","1 54512U 22151JQ  26084.11553635  .00007542  00000-0  13169-2 0  9997","2 54512  98.5946 139.7395 0093675 190.2279 169.7019 14.65381035175908"
"3.0","GENERATED VIA SPACE-TRACK.ORG API","2026-03-25T17:29:05","18 SPCS","CZ-6A DEB","2022-151JV","EARTH","TEME","UTC","SGP4","2026-03-25T14:41:29.520672","14.74492247","0.00723702","98.6306","150.4034","171.7099","188.5322","0","U","54517","999","17816","0.00261622340000","0.00018124","0.0000000000000","7024.901","97.661","697.605","595.926","DEBRIS","SMALL","PRC","2022-11-11","TSC","","5096884","317021051","0 CZ-6A DEB","1 54517U 22151JV  26084.61214723  .00018124  00000-0  26162-2 0  9994","2 54517  98.6306 150.4034 0072370 171.7099 188.5322 14.74492247178162"
"3.0","GENERATED VIA SPACE-TRACK.ORG API","2026-03-25T17:29:05","18 SPCS","CZ-6A DEB","2022-151KY","EARTH","TEME","UTC","SGP4","2026-03-25T15:03:50.118624","14.74801650","0.00341890","98.5928","136.7126","166.5775","193.6349","0","U","54548","999","17774","0.00280258110000","0.00018933","0.0000000000000","7023.918","97.640","669.797","621.769","DEBRIS","SMALL","PRC","2022-11-11","TSC","","5096884","317021064","0 CZ-6A DEB","1 54548U 22151KY  26084.62766341  .00018933  00000-0  28026-2 0  9996","2 54548  98.5928 136.7126 0034189 166.5775 193.6349 14.74801650177744"
"3.0","GENERATED VIA SPACE-TRACK.ORG API","2026-03-25T17:29:05","18 SPCS","CZ-6A DEB","2022-151LD","EARTH","TEME","UTC","SGP4","2026-03-25T04:27:35.145216","14.93846321","0.00457799","98.6450","159.1606","157.3787","202.9461","0","U","54553","999","10690","0.00391380340000","0.00042589","0.0000000000000","6964.093","96.395","617.840","554.076","DEBRIS","SMALL","PRC","2022-11-11","TSC","","5096884","317021567","0 CZ-6A DEB","1 54553U 22151LD  26084.18582344  .00042589  00000-0  39138-2 0  9992","2 54553  98.6450 159.1606 0045780 157.3787 202.9461 14.93846321106907"
"3.0","GENERATED VIA SPACE-TRACK.ORG API","2026-03-25T17:29:05","18 SPCS","CZ-6A DEB","2022-151LR","EARTH","TEME","UTC","SGP4","2026-03-25T02:17:32.934912","14.66038194","0.00965782","98.6325","145.6182","199.1561","160.6000","0","U","54565","999","17772","0.00146413710000","0.00008555","0.0000000000000","7051.881","98.224","741.852","605.640","DEBRIS","SMALL","PRC","2022-11-11","TSC","","5096884","317021572","0 CZ-6A DEB","1 54565U 22151LR  26084.09552008  .00008555  00000-0  14641-2 0  9996","2 54565  98.6325 145.6182 0096578 199.1561 160.6000 14.66038194177723"
"3.0","GENERATED VIA SPACE-TRACK.ORG API","2026-03-25T17:29:05","18 SPCS","CZ-6A DEB","2022-151MC","EARTH","TEME","UTC","SGP4","2026-03-25T02:34:09.372288","14.86095120","0.00496362","98.6231","149.2041","174.6877","185.4874","0","U","54576","999","10662","0.00368875630000","0.00033118","0.0000000000000","6988.288","96.898","644.840","575.465","DEBRIS","SMALL","PRC","2022-11-11","TSC","","5096884","317021577","0 CZ-6A DEB","1 54576U 22151MC  26084.10705292  .00033118  00000-0  36888-2 0  9995","2 54576  98.6231 149.2041 0049636 174.6877 185.4874 14.86095120106625"
"3.0","GENERATED VIA SPACE-TRACK.ORG API","2026-03-25T17:29:05","18 SPCS","CZ-6A DEB","2022-151MD","EARTH","TEME","UTC","SGP4","2026-03-25T13:02:53.410272","14.68106554","0.00644683","98.4567","117.6744","162.0424","198.3079","0","U","54577","999","17737","0.00171985840000","0.00010153","0.0000000000000","7045.256","98.086","712.541","621.702","DEBRIS","SMALL","PRC","2022-11-11","TSC","","5096884","317021077","0 CZ-6A DEB","1 54577U 22151MD  26084.54367373  .00010153  00000-0  17199-2 0  9996","2 54577  98.4567 117.6744 0064468 162.0424 198.3079 14.68106554177378"
"3.0","GENERATED VIA SPACE-TRACK.ORG API","2026-03-25T17:29:05","18 SPCS","CZ-6A DEB","2022-151MF","EARTH","TEME","UTC","SGP4","2026-03-25T15:14:06.758016","14.88422698","0.00467677","98.5548","146.1865","147.9247","212.4828","0","U","54579","999","9979","0.00384597180000","0.00036506","0.0000000000000","6981.000","96.747","635.514","570.217","DEBRIS","SMALL","PRC","2022-11-11","TSC","","5096884","317021078","0 CZ-6A DEB","1 54579U 22151MF  26084.63480044  .00036506  00000-0  38460-2 0  9993","2 54579  98.5548 146.1865 0046768 147.9247 212.4828 14.88422698 99790"
"3.0","GENERATED VIA SPACE-TRACK.ORG API","2026-03-25T04:32:27","18 SPCS","CZ-6A DEB","2022-151MR","EARTH","TEME","UTC","SGP4","2026-03-24T16:54:38.998656","14.84223171","0.00917787","98.7137","173.4908","162.1936","198.2529","0","U","54591","999","10401","0.00310303030000","0.00028026","0.0000000000000","6994.162","97.020","680.219","551.836","DEBRIS","SMALL","PRC","2022-11-11","TSC","","5096755","316988391","0 CZ-6A DEB","1 54591U 22151MR  26083.70461804  .00028026  00000-0  31030-2 0  9991","2 54591  98.7137 173.4908 0091779 162.1936 198.2529 14.84223171104019"
"3.0","GENERATED VIA SPACE-TRACK.ORG API","2026-03-25T17:29:05","18 SPCS","CZ-6A DEB","2022-151MS","EARTH","TEME","UTC","SGP4","2026-03-25T08:41:49.215552","14.81591266","0.00468661","98.5204","132.7125","176.1500","184.0081","0","U","54592","999","17766","0.00257311590000","0.00020596","0.0000000000000","7002.443","97.193","657.125","591.490","DEBRIS","SMALL","PRC","2022-11-11","TSC","","5096884","317021584","0 CZ-6A DEB","1 54592U 22151MS  26084.36237518  .00020596  00000-0  25731-2 0  9993","2 54592  98.5204 132.7125 0046866 176.1500 184.0081 14.81591266177668"
"3.0","GENERATED VIA SPACE-TRACK.ORG API","2026-03-25T17:29:05","18 SPCS","CZ-6A DEB","2022-151MY","EARTH","TEME","UTC","SGP4","2026-03-25T06:19:08.948928","14.83959318","0.00476840","98.8909","194.4777","148.1855","212.2253","0","U","54598","999","17822","0.00419079450000","0.00035666","0.0000000000000","6994.991","97.038","650.211","583.501","DEBRIS","SMALL","PRC","2022-11-11","TSC","","5096884","317021586","0 CZ-6A DEB","1 54598U 22151MY  26084.26329802  .00035666  00000-0  41908-2 0  9994","2 54598  98.8909 194.4777 0047684 148.1855 212.2253 14.83959318178224"
"3.0","GENERATED VIA SPACE-TRACK.ORG API","2026-03-25T17:29:05","18 SPCS","CZ-6A DEB","2022-151NA","EARTH","TEME","UTC","SGP4","2026-03-25T03:08:41.825760","14.71298280","0.00701775","98.6077","143.4825","181.2818","178.8218","0","U","54600","999","17787","0.00210388760000","0.00013469","0.0000000000000","7035.064","97.873","706.299","607.558","DEBRIS","SMALL","PRC","2022-11-11","TSC","","5096884","317021086","0 CZ-6A DEB","1 54600U 22151NA  26084.13103965  .00013469  00000-0  21039-2 0  9994","2 54600  98.6077 143.4825 0070178 181.2818 178.8218 14.71298280177870"
"3.0","GENERATED VIA SPACE-TRACK.ORG API","2026-03-25T17:29:05","18 SPCS","CZ-6A DEB","2022-151NL","EARTH","TEME","UTC","SGP4","2026-03-25T01:48:21.418560","14.60714399","0.00708418","98.6376","135.2308","225.1897","134.3530","0","U","54610","999","10485","0.00164376790000","0.00008254","0.0000000000000","7069.005","98.582","740.948","640.792","DEBRIS","SMALL","PRC","2022-11-11","TSC","","5096884","317021089","0 CZ-6A DEB","1 54610U 22151NL  26084.07524790  .00008254  00000-0  16438-2 0  9994","2 54610  98.6376 135.2308 0070842 225.1897 134.3530 14.60714399104855"
